$$SOE
2459580.500000000, A.D. 2022-Jan-01 00:00:00.0000, -1.840861355840082E+08, 3.518166433688141E+08, 2.068647076928411E+07,
2459587.500000000, A.D. 2022-Jan-08 00:00:00.0000, -1.927657672004378E+08, 3.469047688106073E+08, 2.021149276690534E+07,
2459594.500000000, A.D. 2022-Jan-15 00:00:00.0000, -2.012963183296549E+08, 3.417245225284420E+08, 1.972087947506841E+07,
2459601.500000000, A.D. 2022-Jan-22 00:00:00.0000, -2.096708514560176E+08, 3.362793444616165E+08, 1.921497739639463E+07,
2459608.500000000, A.D. 2022-Jan-29 00:00:00.0000, -2.178824510006291E+08, 3.305727870973485E+08, 1.869414019694830E+07,
2459615.500000000, A.D. 2022-Feb-05 00:00:00.0000, -2.259242228029323E+08, 3.246085182235757E+08, 1.815872912798490E+07,
2459622.500000000, A.D. 2022-Feb-12 00:00:00.0000, -2.337892916022540E+08, 3.183903229204291E+08, 1.760911318046615E+07,
2459629.500000000, A.D. 2022-Feb-19 00:00:00.0000, -2.414707978644989E+08, 3.119221071647675E+08, 1.704566928815106E+07,
2459636.500000000, A.D. 2022-Feb-26 00:00:00.0000, -2.489618952817076E+08, 3.052079023373926E+08, 1.646878264077058E+07,
2459643.500000000, A.D. 2022-Mar-05 00:00:00.0000, -2.562557487974228E+08, 2.982518700259143E+08, 1.587884704228686E+07,
2459650.500000000, A.D. 2022-Mar-12 00:00:00.0000, -2.633455329485075E+08, 2.910583070649377E+08, 1.527626528837407E+07,
2459657.500000000, A.D. 2022-Mar-19 00:00:00.0000, -2.702244304662350E+08, 2.836316508479371E+08, 1.466144955863251E+07,
2459664.500000000, A.D. 2022-Mar-26 00:00:00.0000, -2.768856311299788E+08, 2.759764849106448E+08, 1.403482182069874E+07,
2459671.500000000, A.D. 2022-Apr-02 00:00:00.0000, -2.833223308235065E+08, 2.680975447356661E+08, 1.339681423518983E+07,
2459678.500000000, A.D. 2022-Apr-09 00:00:00.0000, -2.895277305417680E+08, 2.599997237886129E+08, 1.274786953669719E+07,
2459685.500000000, A.D. 2022-Apr-16 00:00:00.0000, -2.954950350134371E+08, 2.516880804450342E+08, 1.208844141135100E+07,
2459692.500000000, A.D. 2022-Apr-23 00:00:00.0000, -3.012174522343609E+08, 2.431678468980006E+08, 1.141899507577530E+07,
2459699.500000000, A.D. 2022-Apr-30 00:00:00.0000, -3.066881958119671E+08, 2.344444378094179E+08, 1.074000804518855E+07,
2459706.500000000, A.D. 2022-May-07 00:00:00.0000, -3.119004870851265E+08, 2.255234567390959E+08, 1.005197064824663E+07,
2459713.500000000, A.D. 2022-May-14 00:00:00.0000, -3.168475556588761E+08, 2.164107033905863E+08, 9.355386409501836E+06,
2459720.500000000, A.D. 2022-May-21 00:00:00.0000, -3.215226404240246E+08, 2.071121824349394E+08, 8.650772547467113E+06,
2459727.500000000, A.D. 2022-May-28 00:00:00.0000, -3.259189915819011E+08, 1.976341129596776E+08, 7.938660553281724E+06,
2459734.500000000, A.D. 2022-Jun-04 00:00:00.0000, -3.300298734386193E+08, 1.879829382335765E+08, 7.219596798455566E+06,
2459741.500000000, A.D. 2022-Jun-11 00:00:00.0000, -3.338485678690739E+08, 1.781653357897656E+08, 6.494143157968886E+06,
2459748.500000000, A.D. 2022-Jun-18 00:00:00.0000, -3.373683784612164E+08, 1.681882278387665E+08, 5.762877645433620E+06,
2459755.500000000, A.D. 2022-Jun-25 00:00:00.0000, -3.405826353645885E+08, 1.580587919745108E+08, 5.026395053857431E+06,
2459762.500000000, A.D. 2022-Jul-02 00:00:00.0000, -3.434847007665617E+08, 1.477844721011039E+08, 4.285307583060458E+06,
2459769.500000000, A.D. 2022-Jul-09 00:00:00.0000, -3.460679746674895E+08, 1.373729897473059E+08, 3.540245430876821E+06,
2459776.500000000, A.D. 2022-Jul-16 00:00:00.0000, -3.483259010757663E+08, 1.268323568369094E+08, 2.791857439856634E+06,
2459783.500000000, A.D. 2022-Jul-23 00:00:00.0000, -3.502519768936059E+08, 1.161708899730300E+08, 2.040812005126603E+06,
2459790.500000000, A.D. 2022-Jul-30 00:00:00.0000, -3.518397634893244E+08, 1.053972228598654E+08, 1.287797958641529E+06,
2459797.500000000, A.D. 2022-Aug-06 00:00:00.0000, -3.530828974367639E+08, 9.452031748311220E+07, 5.335251496779248E+05,
2459804.500000000, A.D. 2022-Aug-13 00:00:00.0000, -3.539751013248753E+08, 8.354947676403701E+07, -2.212749809850343E+05,
2459811.500000000, A.D. 2022-Aug-20 00:00:00.0000, -3.545101962983652E+08, 7.249435813440569E+07, -9.758487347969487E+05,
2459818.500000000, A.D. 2022-Aug-27 00:00:00.0000, -3.546821163607504E+08, 6.136498725126542E+07, -1.729419468124021E+06,
2459825.500000000, A.D. 2022-Sep-03 00:00:00.0000, -3.544849242931797E+08, 5.017177167715821E+07, -2.481186921653014E+06,
2459832.500000000, A.D. 2022-Sep-10 00:00:00.0000, -3.539128292034023E+08, 3.892551447283073E+07, -3.230326579666842E+06,
2459839.500000000, A.D. 2022-Sep-17 00:00:00.0000, -3.529602057844310E+08, 2.763742761056565E+07, -3.975989070053189E+06,
2459846.500000000, A.D. 2022-Sep-24 00:00:00.0000, -3.516216153347352E+08, 1.631914505369854E+07, -4.717299623995903E+06,
2459853.500000000, A.D. 2022-Oct-01 00:00:00.0000, -3.498918284125749E+08, 4.982735362146973E+06, -5.453357629525146E+06,
2459860.500000000, A.D. 2022-Oct-08 00:00:00.0000, -3.477658488258801E+08, -6.359285788833033E+06, -6.183236284737475E+06,
2459867.500000000, A.D. 2022-Oct-15 00:00:00.0000, -3.452389399919691E+08, -1.769394213490983E+07, -6.905982179027402E+06,
2459874.500000000, A.D. 2022-Oct-22 00:00:00.0000, -3.423066559498175E+08, -2.900778426379449E+07, -7.620614753148396E+06,
2459881.500000000, A.D. 2022-Oct-29 00:00:00.0000, -3.389648746336818E+08, -4.028688077731168E+07, -8.326126094970398E+06,
2459888.500000000, A.D. 2022-Nov-05 00:00:00.0000, -3.352098314129514E+08, -5.151681066610214E+07, -9.021481057267446E+06,
2459895.500000000, A.D. 2022-Nov-12 00:00:00.0000, -3.310381549530109E+08, -6.268265588589157E+07, -9.705617433017518E+06,
2459902.500000000, A.D. 2022-Nov-19 00:00:00.0000, -3.264469061920556E+08, -7.376899537526223E+07, -1.037744622159753E+07,
2459909.500000000, A.D. 2022-Nov-26 00:00:00.0000, -3.214336202304916E+08, -8.475990122722559E+07, -1.103585206563585E+07,
2459916.500000000, A.D. 2022-Dec-03 00:00:00.0000, -3.159963509997782E+08, -9.563893737062736E+07, -1.167969389893307E+07,
2459923.500000000, A.D. 2022-Dec-10 00:00:00.0000, -3.101337186659265E+08, -1.063891611199750E+08, -1.230780583344782E+07,
2459930.500000000, A.D. 2022-Dec-17 00:00:00.0000, -3.038449597080926E+08, -1.169931280295106E+08, -1.291899831652078E+07,
2459937.500000000, A.D. 2022-Dec-24 00:00:00.0000, -2.971299794871488E+08, -1.274329005600341E+08, -1.351205960212731E+07,
2459944.500000000, A.D. 2022-Dec-31 00:00:00.0000, -2.899894068224780E+08, -1.376900609228163E+08, -1.408575758975924E+07,
2459951.500000000, A.D. 2023-Jan-07 00:00:00.0000, -2.824246502726789E+08, -1.477457276357484E+08, -1.463884199387551E+07,
2459958.500000000, A.D. 2023-Jan-14 00:00:00.0000, -2.744379578385546E+08, -1.575805758144943E+08, -1.517004665359472E+07,
2459965.500000000, A.D. 2023-Jan-21 00:00:00.0000, -2.660324804113802E+08, -1.671748649096362E+08, -1.567809221383649E+07,
2459972.500000000, A.D. 2023-Jan-28 00:00:00.0000, -2.572123348984812E+08, -1.765084746335276E+08, -1.616168956107077E+07,
2459979.500000000, A.D. 2023-Feb-04 00:00:00.0000, -2.479826667428823E+08, -1.855609465918564E+08, -1.661954377556476E+07,
2459986.500000000, A.D. 2023-Feb-11 00:00:00.0000, -2.383497130352128E+08, -1.943115323386425E+08, -1.705035847617863E+07,
2459993.500000000, A.D. 2023-Feb-18 00:00:00.0000, -2.283208655727729E+08, -2.027392491758999E+08, -1.745284064041130E+07,
2460000.500000000, A.D. 2023-Feb-25 00:00:00.0000, -2.179047327833150E+08, -2.108229443172239E+08, -1.782570595434223E+07,
2460007.500000000, A.D. 2023-Mar-04 00:00:00.0000, -2.071111994806539E+08, -2.185413677904819E+08, -1.816768471185009E+07,
2460014.500000000, A.D. 2023-Mar-11 00:00:00.0000, -1.959514833778867E+08, -2.258732543831609E+08, -1.847752826890293E+07,
2460021.500000000, A.D. 2023-Mar-18 00:00:00.0000, -1.844381871504388E+08, -2.327974148703028E+08, -1.875401605457859E+07,
2460028.500000000, A.D. 2023-Mar-25 00:00:00.0000, -1.725853445778703E+08, -2.392928366250304E+08, -1.899596314351650E+07,
2460035.500000000, A.D. 2023-Apr-01 00:00:00.0000, -1.604084589792663E+08, -2.453387931065593E+08, -1.920222836618178E+07,
2460042.500000000, A.D. 2023-Apr-08 00:00:00.0000, -1.479245331224788E+08, -2.509149606959583E+08, -1.937172275569291E+07,
2460049.500000000, A.D. 2023-Apr-15 00:00:00.0000, -1.351520914580124E+08, -2.560015434617084E+08, -1.950341814705411E+07,
2460056.500000000, A.D. 2023-Apr-22 00:00:00.0000, -1.221111913645622E+08, -2.605794081450045E+08, -1.959635626815303E+07,
2460063.500000000, A.D. 2023-Apr-29 00:00:00.0000, -1.088234191926193E+08, -2.646302260938173E+08, -1.964965829665120E+07,
2460070.500000000, A.D. 2023-May-06 00:00:00.0000, -9.531187145604010E+07, -2.681366190710173E+08, -1.966253446545058E+07,
2460077.500000000, A.D. 2023-May-13 00:00:00.0000, -8.160112085512088E+07, -2.710823082548431E+08, -1.963429357275021E+07,
2460084.500000000, A.D. 2023-May-20 00:00:00.0000, -6.771716577720590E+07, -2.734522650705806E+08, -1.956435231516561E+07,
2460091.500000000, A.D. 2023-May-27 00:00:00.0000, -5.368736219148415E+07, -2.752328617687925E+08, -1.945224430749124E+07,
2460098.500000000, A.D. 2023-Jun-03 00:00:00.0000, -3.954033727788211E+07, -2.764120193805215E+08, -1.929762862579504E+07,
2460105.500000000, A.D. 2023-Jun-10 00:00:00.0000, -2.530588451134066E+07, -2.769793505346572E+08, -1.910029770390680E+07,
2460112.500000000, A.D. 2023-Jun-17 00:00:00.0000, -1.101484025686324E+07, -2.769262945327373E+08, -1.886018441898322E+07,
2460119.500000000, A.D. 2023-Jun-24 00:00:00.0000, 3.301057866655026E+06, -2.762462418863727E+08, -1.857736821388455E+07,
2460126.500000000, A.D. 2023-Jul-01 00:00:00.0000, 1.760933007416381E+07, -2.749346447576486E+08, -1.825208004187155E+07,
2460133.500000000, A.D. 2023-Jul-08 00:00:00.0000, 3.187692778077206E+07, -2.729891098491852E+08, -1.788470575741208E+07,
2460140.500000000, A.D. 2023-Jul-15 00:00:00.0000, 4.607041800777820E+07, -2.704094741366964E+08, -1.747578793366082E+07,
$$EOE